[{"OBJECT_NAME":"STARLINK-3515","OBJECT_ID":"2022-016AA","EPOCH":"2026-03-09T21:39:24.578784","MEAN_MOTION":15.08834677,"ECCENTRICITY":0.00013974,"INCLINATION":53.2185,"RA_OF_ASC_NODE":318.1644,"ARG_OF_PERICENTER":101.8565,"MEAN_ANOMALY":258.2585,"EPHEMERIS_TYPE":0,"CLASSIFICATION_TYPE":"U","NORAD_CAT_ID":51738,"ELEMENT_SET_NO":999,"REV_AT_EPOCH":22359,"BSTAR":-1.7675508e-5,"MEAN_MOTION_DOT":-5.69e-6,"MEAN_MOTION_DDOT":0},{"OBJECT_NAME":"DELTA 1 DEB","OBJECT_ID":"1978-026BX","EPOCH":"2026-03-09T21:34:36.806304","MEAN_MOTION":15.0275865,"ECCENTRICITY":0.00371244,"INCLINATION":98.0194,"RA_OF_ASC_NODE":65.5332,"ARG_OF_PERICENTER":51.7385,"MEAN_ANOMALY":308.7169,"EPHEMERIS_TYPE":0,"CLASSIFICATION_TYPE":"U","NORAD_CAT_ID":12230,"ELEMENT_SET_NO":999,"REV_AT_EPOCH":36609,"BSTAR":0.0014350783,"MEAN_MOTION_DOT":0.00019449,"MEAN_MOTION_DDOT":0}]
